<?xml version="1.0" encoding="UTF-8"?>
<ndm xmlns:xsi="http://www.w3.org/2001/XMLSchema-instance" xsi:noNamespaceSchemaLocation="https://sanaregistry.org/r/ndmxml_unqualified/ndmxml-2.0.0-master-2.0.xsd">
<omm id="CCSDS_OMM_VERS" version="2.0">
<header><CREATION_DATE/><ORIGINATOR/></header><body><segment><metadata><OBJECT_NAME>ORBCOMM FM33</OBJECT_NAME><OBJECT_ID>1999-065D</OBJECT_ID><CENTER_NAME>EARTH</CENTER_NAME><REF_FRAME>TEME</REF_FRAME><TIME_SYSTEM>UTC</TIME_SYSTEM><MEAN_ELEMENT_THEORY>SGP4</MEAN_ELEMENT_THEORY></metadata><data><meanElements><EPOCH>2024-08-23T14:02:48.789888</EPOCH><MEAN_MOTION>14.38190258</MEAN_MOTION><ECCENTRICITY>.000759</ECCENTRICITY><INCLINATION>45.0298</INCLINATION><RA_OF_ASC_NODE>332.1158</RA_OF_ASC_NODE><ARG_OF_PERICENTER>349.9455</ARG_OF_PERICENTER><MEAN_ANOMALY>10.1241</MEAN_ANOMALY></meanElements><tleParameters><EPHEMERIS_TYPE>0</EPHEMERIS_TYPE><CLASSIFICATION_TYPE>U</CLASSIFICATION_TYPE><NORAD_CAT_ID>25983</NORAD_CAT_ID><ELEMENT_SET_NO>999</ELEMENT_SET_NO><REV_AT_EPOCH>29319</REV_AT_EPOCH><BSTAR>.88314E-3</BSTAR><MEAN_MOTION_DOT>.2565E-4</MEAN_MOTION_DOT><MEAN_MOTION_DDOT>0</MEAN_MOTION_DDOT></tleParameters></data></segment></body></omm>
<omm id="CCSDS_OMM_VERS" version="2.0">
<header><CREATION_DATE/><ORIGINATOR/></header><body><segment><metadata><OBJECT_NAME>ORBCOMM FM36</OBJECT_NAME><OBJECT_ID>1999-065E</OBJECT_ID><CENTER_NAME>EARTH</CENTER_NAME><REF_FRAME>TEME</REF_FRAME><TIME_SYSTEM>UTC</TIME_SYSTEM><MEAN_ELEMENT_THEORY>SGP4</MEAN_ELEMENT_THEORY></metadata><data><meanElements><EPOCH>2024-08-23T13:39:36.561888</EPOCH><MEAN_MOTION>14.36134690</MEAN_MOTION><ECCENTRICITY>.0003816</ECCENTRICITY><INCLINATION>45.0395</INCLINATION><RA_OF_ASC_NODE>59.4683</RA_OF_ASC_NODE><ARG_OF_PERICENTER>227.8006</ARG_OF_PERICENTER><MEAN_ANOMALY>132.2518</MEAN_ANOMALY></meanElements><tleParameters><EPHEMERIS_TYPE>0</EPHEMERIS_TYPE><CLASSIFICATION_TYPE>U</CLASSIFICATION_TYPE><NORAD_CAT_ID>25984</NORAD_CAT_ID><ELEMENT_SET_NO>999</ELEMENT_SET_NO><REV_AT_EPOCH>29160</REV_AT_EPOCH><BSTAR>.11521E-2</BSTAR><MEAN_MOTION_DOT>.3247E-4</MEAN_MOTION_DOT><MEAN_MOTION_DDOT>0</MEAN_MOTION_DDOT></tleParameters></data></segment></body></omm>
<omm id="CCSDS_OMM_VERS" version="2.0">
<header><CREATION_DATE/><ORIGINATOR/></header><body><segment><metadata><OBJECT_NAME>ORBCOMM FM35</OBJECT_NAME><OBJECT_ID>1999-065F</OBJECT_ID><CENTER_NAME>EARTH</CENTER_NAME><REF_FRAME>TEME</REF_FRAME><TIME_SYSTEM>UTC</TIME_SYSTEM><MEAN_ELEMENT_THEORY>SGP4</MEAN_ELEMENT_THEORY></metadata><data><meanElements><EPOCH>2024-08-23T13:51:06.794208</EPOCH><MEAN_MOTION>14.35560254</MEAN_MOTION><ECCENTRICITY>.0002515</ECCENTRICITY><INCLINATION>45.0397</INCLINATION><RA_OF_ASC_NODE>62.4718</RA_OF_ASC_NODE><ARG_OF_PERICENTER>346.7114</ARG_OF_PERICENTER><MEAN_ANOMALY>13.3667</MEAN_ANOMALY></meanElements><tleParameters><EPHEMERIS_TYPE>0</EPHEMERIS_TYPE><CLASSIFICATION_TYPE>U</CLASSIFICATION_TYPE><NORAD_CAT_ID>25985</NORAD_CAT_ID><ELEMENT_SET_NO>999</ELEMENT_SET_NO><REV_AT_EPOCH>29199</REV_AT_EPOCH><BSTAR>.85209E-3</BSTAR><MEAN_MOTION_DOT>.2335E-4</MEAN_MOTION_DOT><MEAN_MOTION_DDOT>0</MEAN_MOTION_DDOT></tleParameters></data></segment></body></omm>
<omm id="CCSDS_OMM_VERS" version="2.0">
<header><CREATION_DATE/><ORIGINATOR/></header><body><segment><metadata><OBJECT_NAME>ORBCOMM FM34</OBJECT_NAME><OBJECT_ID>1999-065G</OBJECT_ID><CENTER_NAME>EARTH</CENTER_NAME><REF_FRAME>TEME</REF_FRAME><TIME_SYSTEM>UTC</TIME_SYSTEM><MEAN_ELEMENT_THEORY>SGP4</MEAN_ELEMENT_THEORY></metadata><data><meanElements><EPOCH>2024-08-23T13:11:03.955776</EPOCH><MEAN_MOTION>14.35550536</MEAN_MOTION><ECCENTRICITY>.000323</ECCENTRICITY><INCLINATION>45.0392</INCLINATION><RA_OF_ASC_NODE>63.1535</RA_OF_ASC_NODE><ARG_OF_PERICENTER>278.8659</ARG_OF_PERICENTER><MEAN_ANOMALY>81.1823</MEAN_ANOMALY></meanElements><tleParameters><EPHEMERIS_TYPE>0</EPHEMERIS_TYPE><CLASSIFICATION_TYPE>U</CLASSIFICATION_TYPE><NORAD_CAT_ID>25986</NORAD_CAT_ID><ELEMENT_SET_NO>999</ELEMENT_SET_NO><REV_AT_EPOCH>29210</REV_AT_EPOCH><BSTAR>.92406E-3</BSTAR><MEAN_MOTION_DOT>.2544E-4</MEAN_MOTION_DOT><MEAN_MOTION_DDOT>0</MEAN_MOTION_DDOT></tleParameters></data></segment></body></omm>
<omm id="CCSDS_OMM_VERS" version="2.0">
<header><CREATION_DATE/><ORIGINATOR/></header><body><segment><metadata><OBJECT_NAME>ORBCOMM FM38</OBJECT_NAME><OBJECT_ID>2008-031A</OBJECT_ID><CENTER_NAME>EARTH</CENTER_NAME><REF_FRAME>TEME</REF_FRAME><TIME_SYSTEM>UTC</TIME_SYSTEM><MEAN_ELEMENT_THEORY>SGP4</MEAN_ELEMENT_THEORY></metadata><data><meanElements><EPOCH>2024-08-23T11:53:05.720640</EPOCH><MEAN_MOTION>14.78368284</MEAN_MOTION><ECCENTRICITY>.0005338</ECCENTRICITY><INCLINATION>48.4403</INCLINATION><RA_OF_ASC_NODE>291.1541</RA_OF_ASC_NODE><ARG_OF_PERICENTER>213.4801</ARG_OF_PERICENTER><MEAN_ANOMALY>146.5777</MEAN_ANOMALY></meanElements><tleParameters><EPHEMERIS_TYPE>0</EPHEMERIS_TYPE><CLASSIFICATION_TYPE>U</CLASSIFICATION_TYPE><NORAD_CAT_ID>33060</NORAD_CAT_ID><ELEMENT_SET_NO>999</ELEMENT_SET_NO><REV_AT_EPOCH>87065</REV_AT_EPOCH><BSTAR>.59828E-3</BSTAR><MEAN_MOTION_DOT>.4195E-4</MEAN_MOTION_DOT><MEAN_MOTION_DDOT>0</MEAN_MOTION_DDOT></tleParameters></data></segment></body></omm>
<omm id="CCSDS_OMM_VERS" version="2.0">
<header><CREATION_DATE/><ORIGINATOR/></header><body><segment><metadata><OBJECT_NAME>ORBCOMM FM41</OBJECT_NAME><OBJECT_ID>2008-031B</OBJECT_ID><CENTER_NAME>EARTH</CENTER_NAME><REF_FRAME>TEME</REF_FRAME><TIME_SYSTEM>UTC</TIME_SYSTEM><MEAN_ELEMENT_THEORY>SGP4</MEAN_ELEMENT_THEORY></metadata><data><meanElements><EPOCH>2024-08-23T13:57:25.098336</EPOCH><MEAN_MOTION>14.78088832</MEAN_MOTION><ECCENTRICITY>.0004335</ECCENTRICITY><INCLINATION>48.4439</INCLINATION><RA_OF_ASC_NODE>297.6166</RA_OF_ASC_NODE><ARG_OF_PERICENTER>201.2814</ARG_OF_PERICENTER><MEAN_ANOMALY>270.7321</MEAN_ANOMALY></meanElements><tleParameters><EPHEMERIS_TYPE>0</EPHEMERIS_TYPE><CLASSIFICATION_TYPE>U</CLASSIFICATION_TYPE><NORAD_CAT_ID>33061</NORAD_CAT_ID><ELEMENT_SET_NO>999</ELEMENT_SET_NO><REV_AT_EPOCH>87016</REV_AT_EPOCH><BSTAR>.61039E-3</BSTAR><MEAN_MOTION_DOT>.4255E-4</MEAN_MOTION_DOT><MEAN_MOTION_DDOT>0</MEAN_MOTION_DDOT></tleParameters></data></segment></body></omm>
<omm id="CCSDS_OMM_VERS" version="2.0">
<header><CREATION_DATE/><ORIGINATOR/></header><body><segment><metadata><OBJECT_NAME>ORBCOMM FM29</OBJECT_NAME><OBJECT_ID>2008-031C</OBJECT_ID><CENTER_NAME>EARTH</CENTER_NAME><REF_FRAME>TEME</REF_FRAME><TIME_SYSTEM>UTC</TIME_SYSTEM><MEAN_ELEMENT_THEORY>SGP4</MEAN_ELEMENT_THEORY></metadata><data><meanElements><EPOCH>2024-08-23T13:56:38.863968</EPOCH><MEAN_MOTION>14.78046863</MEAN_MOTION><ECCENTRICITY>.0006148</ECCENTRICITY><INCLINATION>48.4395</INCLINATION><RA_OF_ASC_NODE>305.6502</RA_OF_ASC_NODE><ARG_OF_PERICENTER>196.2745</ARG_OF_PERICENTER><MEAN_ANOMALY>314.3752</MEAN_ANOMALY></meanElements><tleParameters><EPHEMERIS_TYPE>0</EPHEMERIS_TYPE><CLASSIFICATION_TYPE>U</CLASSIFICATION_TYPE><NORAD_CAT_ID>33062</NORAD_CAT_ID><ELEMENT_SET_NO>999</ELEMENT_SET_NO><REV_AT_EPOCH>87007</REV_AT_EPOCH><BSTAR>.64148E-3</BSTAR><MEAN_MOTION_DOT>.4478E-4</MEAN_MOTION_DOT><MEAN_MOTION_DDOT>0</MEAN_MOTION_DDOT></tleParameters></data></segment></body></omm>
<omm id="CCSDS_OMM_VERS" version="2.0">
<header><CREATION_DATE/><ORIGINATOR/></header><body><segment><metadata><OBJECT_NAME>ORBCOMM FM39</OBJECT_NAME><OBJECT_ID>2008-031D</OBJECT_ID><CENTER_NAME>EARTH</CENTER_NAME><REF_FRAME>TEME</REF_FRAME><TIME_SYSTEM>UTC</TIME_SYSTEM><MEAN_ELEMENT_THEORY>SGP4</MEAN_ELEMENT_THEORY></metadata><data><meanElements><EPOCH>2024-08-23T12:36:03.116448</EPOCH><MEAN_MOTION>14.76948999</MEAN_MOTION><ECCENTRICITY>.0006827</ECCENTRICITY><INCLINATION>48.4416</INCLINATION><RA_OF_ASC_NODE>327.2635</RA_OF_ASC_NODE><ARG_OF_PERICENTER>168.3977</ARG_OF_PERICENTER><MEAN_ANOMALY>191.7095</MEAN_ANOMALY></meanElements><tleParameters><EPHEMERIS_TYPE>0</EPHEMERIS_TYPE><CLASSIFICATION_TYPE>U</CLASSIFICATION_TYPE><NORAD_CAT_ID>33063</NORAD_CAT_ID><ELEMENT_SET_NO>999</ELEMENT_SET_NO><REV_AT_EPOCH>86975</REV_AT_EPOCH><BSTAR>.6434E-3</BSTAR><MEAN_MOTION_DOT>.4374E-4</MEAN_MOTION_DOT><MEAN_MOTION_DDOT>0</MEAN_MOTION_DDOT></tleParameters></data></segment></body></omm>

</ndm>
