33060,ORBCOMM FM38,2008,97.4,-1.0,-,48.44,Inactive,0,LEO,Russia,ORBCOMM,Unknown,Unknown,Unknown,1 33060U 08031A   24236.49520510  .00004195  00000+0  59828-3 0  9990,2 33060  48.4403 291.1541 0005338 213.4801 146.5777 14.78368284870652,14.78368284,0.0005338,LEO
33061,ORBCOMM FM41,2008,97.42,-1.0,-,48.44,Inactive,0,LEO,Russia,ORBCOMM,Unknown,Unknown,Unknown,1 33061U 08031B   24236.58154049  .00004255  00000+0  61039-3 0  9995,2 33061  48.4439 297.6166 0004335 201.2814 270.7321 14.78088832870160,14.78088832,0.0004335,LEO
33062,ORBCOMM FM29,2008,97.43,-1.0,-,48.44,Inactive,0,LEO,Russia,ORBCOMM,Unknown,Unknown,Unknown,1 33062U 08031C   24236.58100537  .00004478  00000+0  64148-3 0  9990,2 33062  48.4395 305.6502 0006148 196.2745 314.3752 14.78046863870077,14.78046863,0.0006148,LEO
33063,ORBCOMM FM39,2008,97.5,-1.0,-,48.44,Inactive,0,LEO,Russia,ORBCOMM,Unknown,Unknown,Unknown,1 33063U 08031D   24236.52503607  .00004374  00000+0  64340-3 0  9999,2 33063  48.4416 327.2635 0006827 168.3977 191.7095 14.76948999869759,14.76948999,0.0006827,LEO
25983,ORBCOMM FM33,1999,100.13,-1.0,-,45.03,Inactive,0,LEO,Eastern Range Airspace,ORBCOMM,Unknown,Unknown,Unknown,1 25983U 99065D   24236.58528692  .00002565  00000+0  88314-3 0  9992,2 25983  45.0298 332.1158 0007590 349.9455  10.1241 14.38190258293194,14.38190258,0.000759,LEO
25984,ORBCOMM FM36,1999,100.27,45.0,-,45.04,Inactive,1,LEO,Eastern Range Airspace,ORBCOMM,Commercial,Communications,Pegasus,1 25984U 99065E   24236.56917317  .00003247  00000+0  11521-2 0  9990,2 25984  45.0395  59.4683 0003816 227.8006 132.2518 14.36134690291601,14.3613469,0.0003816,LEO
25986,ORBCOMM FM34,1999,100.31,-1.0,-,45.04,Inactive,0,LEO,Eastern Range Airspace,ORBCOMM,Unknown,Unknown,Unknown,1 25986U 99065G   24236.54935134  .00002544  00000+0  92406-3 0  9998,2 25986  45.0392  63.1535 0003230 278.8659  81.1823 14.35550536292105,14.35550536,0.000323,LEO
25985,ORBCOMM FM35,1999,100.31,45.0,+,45.04,Active,1,LEO,Eastern Range Airspace,ORBCOMM,Commercial,Communications,Pegasus,1 25985U 99065F   24236.57716197  .00002335  00000+0  85209-3 0  9997,2 25985  45.0397  62.4718 0002515 346.7114  13.3667 14.35560254291997,14.35560254,0.0002515,LEO
